      2.10          N: GNSS NAV DATA                        RINEX VERSION / TYPE
fic2rin                                 01/16/2023 00:17:45 PGM / RUN BY / DATE
                                                            END OF HEADER
11 23  1 15  6  0  0.0 -.791042111814D-04 -.886757334229D-11  .000000000000D+00
     .226000000000D+03 -.387812500000D+02  .435053836024D-08 -.130944878124D+01
    -.188127160072D-05  .788629287854D-03  .894069671631D-05  .515369783020D+04
     .216000000000D+05  .931322574615D-08 -.159838350489D+01  .130385160446D-07
     .964437408621D+00  .210218750000D+03 -.270195617009D+01 -.802604860285D-08
     .821462788651D-10  .100000000000D+01  .224500000000D+04  .000000000000D+00
     .240000000000D+01  .000000000000D+00 -.884756445885D-08  .482000000000D+03
     .144000000000D+05  .400000000000D+01
24 23  1 15  6  0  0.0 -.305669382215D-04 -.167119651451D-10  .000000000000D+00
     .300000000000D+02  .181250000000D+01  .493699135979D-08 -.252135039561D+01
     .670552253723D-07  .136692291126D-01  .101327896118D-04  .515366666603D+04
     .216000000000D+05  .745058059692D-07  .140615111876D+01 -.117346644402D-06
     .933668164261D+00  .167750000000D+03  .878919831750D+00 -.800854787388D-08
    -.250010413937D-10  .100000000000D+01  .224500000000D+04  .000000000000D+00
     .240000000000D+01  .000000000000D+00  .232830643654D-08  .300000000000D+02
     .144000000000D+05  .400000000000D+01
20 23  1 15  6  0  0.0  .456976238638D-03 -.238742359215D-11  .000000000000D+00
     .160000000000D+02 -.129375000000D+02  .497449292188D-08 -.186691360371D+01
    -.515952706337D-06  .458220671862D-02  .731460750103D-05  .515372722054D+04
     .216000000000D+05  .108033418655D-06 -.767327236682D+00 -.108033418655D-06
     .946651443718D+00  .228968750000D+03 -.294906790036D+01 -.832998983466D-08
     .338942689752D-09  .100000000000D+01  .224500000000D+04  .000000000000D+00
     .240000000000D+01  .000000000000D+00 -.838190317154D-08  .160000000000D+02
     .144000000000D+05  .400000000000D+01
25 23  1 15  6  0  0.0  .411420594901D-03  .341060513165D-11  .000000000000D+00
     .250000000000D+02  .676562500000D+02  .466769442821D-08  .201346410530D+01
     .338442623615D-05  .111173128244D-01  .706315040588D-05  .515356266594D+04
     .216000000000D+05 -.149011611938D-06  .252832514575D+01 -.234693288803D-06
     .954369404516D+00  .238875000000D+03  .101507734490D+01 -.816641159239D-08
     .123219418298D-09  .100000000000D+01  .224500000000D+04  .000000000000D+00
     .240000000000D+01  .000000000000D+00  .558793544769D-08  .250000000000D+02
     .144000000000D+05  .400000000000D+01
14 23  1 15  6  0  0.0 -.490681268275D-04  .761701812735D-11  .000000000000D+00
     .135000000000D+03  .741875000000D+02  .491270463387D-08  .213013649322D+01
     .384077429771D-05  .253806775436D-02  .614300370216D-05  .515366270447D+04
     .216000000000D+05 -.186264514923D-07  .257250387027D+01  .260770320892D-07
     .950143960213D+00  .252812500000D+03 -.307442813011D+01 -.836427697714D-08
     .130719730716D-09  .100000000000D+01  .224500000000D+04  .000000000000D+00
     .240000000000D+01  .000000000000D+00 -.791624188423D-08  .647000000000D+03
     .144000000000D+05  .400000000000D+01
12 23  1 15  6  0  0.0 -.328267458826D-03 -.454747350886D-11  .000000000000D+00
     .920000000000D+02  .640000000000D+02  .440125475850D-08  .209387790477D+01
     .320002436638D-05  .884007685818D-02  .675953924656D-05  .515367765045D+04
     .216000000000D+05  .409781932831D-07  .260906773314D+01 -.158324837685D-06
     .966811911917D+00  .249750000000D+03  .132479248779D+01 -.799819029959D-08
     .107147320259D-09  .100000000000D+01  .224500000000D+04  .000000000000D+00
     .485000000000D+01  .000000000000D+00 -.125728547573D-07  .920000000000D+02
     .144000000000D+05  .400000000000D+01
29 23  1 15  6  0  0.0 -.580471940339D-03 -.227373675443D-11  .000000000000D+00
     .680000000000D+02 -.100625000000D+02  .423910514717D-08 -.584664123939D+00
    -.711530447006D-06  .212667568121D-02  .528059899807D-05  .515359493065D+04
     .216000000000D+05  .149011611938D-07 -.262187912265D+01 -.372529029846D-07
     .978395284102D+00  .286531250000D+03  .242402779691D+01 -.809319425688D-08
    -.112147528538D-09  .100000000000D+01  .224500000000D+04  .000000000000D+00
     .240000000000D+01  .000000000000D+00 -.102445483208D-07  .680000000000D+02
     .144000000000D+05  .400000000000D+01
31 23  1 15  6  0  0.0 -.206366181374D-03 -.113686837722D-11  .000000000000D+00
     .810000000000D+02  .172500000000D+02  .454983237592D-08  .229505756810D+01
     .812113285065D-06  .107886660844D-01  .101663172245D-04  .515364536095D+04
     .216000000000D+05 -.165775418282D-06  .151402577775D+01 -.689178705215D-07
     .954216078998D+00  .184000000000D+03  .492661919838D+00 -.793568769610D-08
    -.118933525487D-09  .100000000000D+01  .224500000000D+04  .000000000000D+00
     .340000000000D+01  .000000000000D+00 -.135041773319D-07  .810000000000D+02
     .144000000000D+05  .400000000000D+01
32 23  1 15  6  0  0.0 -.364455394447D-03 -.123918653117D-10  .000000000000D+00
     .890000000000D+02 -.373125000000D+02  .479627121252D-08  .137403271283D+00
    -.190734863281D-05  .645594985690D-02  .708363950253D-05  .515369372559D+04
     .216000000000D+05 -.242143869400D-07  .435440881266D+00  .670552253723D-07
     .959314418725D+00  .243375000000D+03 -.227672020157D+01 -.829998858498D-08
    -.183221917643D-09  .100000000000D+01  .224500000000D+04  .000000000000D+00
     .240000000000D+01  .000000000000D+00  .465661287308D-09  .890000000000D+02
     .144000000000D+05  .400000000000D+01
16 23  1 15  6  0  0.0 -.523797702044D-03  .113686837722D-11  .000000000000D+00
     .690000000000D+02  .624375000000D+02  .451590239118D-08  .271455888164D+00
     .342540442944D-05  .133098718943D-01  .582449138165D-05  .515377036285D+04
     .216000000000D+05 -.130385160446D-07  .262743878774D+01  .266358256340D-06
     .966589576164D+00  .270437500000D+03  .752776904248D+00 -.830677458193D-08
     .482162941165D-10  .100000000000D+01  .224500000000D+04  .000000000000D+00
     .240000000000D+01  .000000000000D+00 -.102445483208D-07  .690000000000D+02
     .144000000000D+05  .400000000000D+01
30 23  1 15  6  0  0.0 -.533221755177D-03  .102318153949D-11  .000000000000D+00
     .890000000000D+02  .224375000000D+02  .500056543648D-08  .274147610471D+01
     .109896063805D-05  .602737360168D-02  .110846012831D-04  .515365578651D+04
     .216000000000D+05 -.409781932831D-07  .150270300833D+01 -.102445483208D-06
     .935226588947D+00  .150843750000D+03 -.266322845534D+01 -.812212403335D-08
    -.928610108910D-10  .100000000000D+01  .224500000000D+04  .000000000000D+00
     .240000000000D+01  .000000000000D+00  .372529029846D-08  .890000000000D+02
     .144000000000D+05  .400000000000D+01
15 23  1 15  6  0  0.0  .474555417895D-05  .329691829393D-11  .000000000000D+00
     .640000000000D+02 -.328125000000D+02  .535486590880D-08 -.154535709572D+01
    -.154040753841D-05  .147415057290D-01  .618025660515D-05  .515365951729D+04
     .216000000000D+05  .335276126862D-06  .307979605638D+00  .191852450371D-06
     .931859267519D+00  .241687500000D+03  .117376238915D+01 -.841463621766D-08
    -.871464871438D-10  .100000000000D+01  .224500000000D+04  .000000000000D+00
     .240000000000D+01  .000000000000D+00 -.107102096081D-07  .640000000000D+02
     .144000000000D+05  .400000000000D+01
27 23  1 15  6  0  0.0  .126720406115D-03 -.943600753089D-11  .000000000000D+00
     .560000000000D+02 -.138125000000D+02  .452983154281D-08 -.556129072940D+00
    -.620260834694D-06  .111325886101D-01  .532343983650D-05  .515366039658D+04
     .216000000000D+05  .689178705215D-07 -.270039179864D+01  .167638063431D-06
     .969613534627D+00  .281500000000D+03  .689040463038D+00 -.832320383771D-08
    -.181436128972D-09  .100000000000D+01  .224500000000D+04  .000000000000D+00
     .240000000000D+01  .000000000000D+00  .186264514923D-08  .560000000000D+02
     .144000000000D+05  .400000000000D+01
21 23  1 15  6  0  0.0  .153452157974D-03  .227373675443D-12  .000000000000D+00
     .770000000000D+02 -.306562500000D+02  .455126100686D-08 -.613416617230D+00
    -.184588134289D-05  .247815938201D-01  .882148742676D-05  .515366107178D+04
     .216000000000D+05 -.327825546265D-06 -.173445521498D+01 -.292435288429D-06
     .961162153016D+00  .215562500000D+03 -.836596011285D+00 -.839463538454D-08
     .232866842696D-09  .100000000000D+01  .224500000000D+04  .000000000000D+00
     .240000000000D+01  .000000000000D+00 -.102445483208D-07  .770000000000D+02
     .144000000000D+05  .400000000000D+01
26 23  1 15  6  0  0.0  .240314286202D-03  .568434188608D-12  .000000000000D+00
     .830000000000D+02  .729062500000D+02  .516092925913D-08  .121372910919D+01
     .392459332943D-05  .778081268072D-02  .654719769955D-05  .515362623215D+04
     .216000000000D+05 -.558793544769D-07  .247514206097D+01  .106170773506D-06
     .935123045068D+00  .239406250000D+03  .431954478306D+00 -.849963975840D-08
    -.257153568621D-10  .100000000000D+01  .224500000000D+04  .000000000000D+00
     .240000000000D+01  .000000000000D+00  .698491930962D-08  .830000000000D+02
     .144000000000D+05  .400000000000D+01
17 23  1 15  6  0  0.0  .693429261446D-03  .261479726760D-11  .000000000000D+00
     .490000000000D+02 -.184375000000D+02  .444125642473D-08 -.594973050170D+00
    -.105984508991D-05  .137748084962D-01  .604428350925D-05  .515369547653D+04
     .216000000000D+05 -.178813934326D-06 -.263565180733D+01  .670552253723D-07
     .976210796310D+00  .276312500000D+03 -.143031826065D+01 -.839320675361D-08
    -.106433004790D-09  .100000000000D+01  .224500000000D+04  .000000000000D+00
     .240000000000D+01  .000000000000D+00 -.111758708954D-07  .490000000000D+02
     .144000000000D+05  .400000000000D+01
